NORAD_CAT_ID,OBJECT_NAME,OBJECT_TYPE,EPOCH,MEAN_MOTION,ECCENTRICITY,INCLINATION,RA_OF_ASC_NODE,ARG_OF_PERICENTER,MEAN_ANOMALY,BSTAR,MEAN_MOTION_DOT,MEAN_MOTION_DDOT,TLE_LINE0,TLE_LINE1,TLE_LINE2,SEMIMAJOR_AXIS,PERIOD,APOGEE,PERIGEE,DECAYED
52337.0,STARLINK-3797,PAYLOAD,2023-03-26 22:21:34,15.08809798,0.0001281,53.2176,11.8569,71.1206,288.9925,0.0011057,0.00017338,0.0,0 STARLINK-3797,1 52337U 22045G   23085.93164568  .00017338  00000-0  11057-2 0  9991,2 52337  53.2176  11.8569 0001281  71.1206 288.9925 15.08809798 52785,6917.973,95.439,540.724,538.952,0.0
52337.0,STARLINK-3797,PAYLOAD,2023-03-27 04:43:06,15.08831246,0.0001472,53.2174,10.6645,82.0405,278.0754,0.0018479,0.00029237,0.0,0 STARLINK-3797,1 52337U 22045G   23086.19660763  .00029237  00000-0  18479-2 0  9994,2 52337  53.2174  10.6645 0001472  82.0405 278.0754 15.08831246 52827,6917.907,95.438,540.79,538.754,0.0
52337.0,STARLINK-3797,PAYLOAD,2023-03-27 22:12:21,15.08855111,0.0001378,53.2173,7.3917,88.9819,271.1331,0.00098665,0.00015456,0.0,0 STARLINK-3797,1 52337U 22045G   23086.92524341  .00015456  00000-0  98665-3 0  9990,2 52337  53.2173   7.3917 0001378  88.9819 271.1331 15.08855111 52934,6917.834,95.437,540.652,538.746,0.0
52337.0,STARLINK-3797,PAYLOAD,2023-03-28 04:33:53,15.0887795,0.0001075,53.2181,6.2046,76.7137,283.3975,0.0019347,0.00030669,0.0,0 STARLINK-3797,1 52337U 22045G   23087.19019772  .00030669  00000-0  19347-2 0  9999,2 52337  53.2181   6.2046 0001075  76.7137 283.3975 15.08877950 52974,6917.764,95.435,540.373,538.886,0.0
52337.0,STARLINK-3797,PAYLOAD,2023-03-28 18:52:21,15.08848919,0.0001175,53.2184,3.5287,107.3632,252.7489,0.0013822,0.00021783,0.0,0 STARLINK-3797,1 52337U 22045G   23087.78635985  .00021783  00000-0  13822-2 0  9993,2 52337  53.2184   3.5287 0001175 107.3632 252.7489 15.08848919 53060,6917.853,95.437,540.531,538.905,0.0
52337.0,STARLINK-3797,PAYLOAD,2023-03-29 01:13:53,15.08864289,9.95e-05,53.2179,2.34,95.8236,264.287,0.0013059,0.0002057,0.0,0 STARLINK-3797,1 52337U 22045G   23088.05131604  .00020570  00000-0  13059-2 0  9998,2 52337  53.2179   2.3400 0000995  95.8236 264.2870 15.08864289 53103,6917.806,95.436,540.359,538.983,0.0
52337.0,STARLINK-3797,PAYLOAD,2023-03-30 04:15:26,15.08863783,0.0001077,53.2179,357.2849,89.431,270.6805,0.0013104,0.00020642,0.0,0 STARLINK-3797,1 52337U 22045G   23089.17739533  .00020642  00000-0  13104-2 0  9998,2 52337  53.2179 357.2849 0001077  89.4310 270.6805 15.08863783 53271,6917.808,95.436,540.418,538.928,0.0
52337.0,STARLINK-3797,PAYLOAD,2023-03-30 10:36:59,15.08833728,9.98e-05,53.218,356.0959,105.0137,255.0966,0.0003416,5.152e-05,0.0,0 STARLINK-3797,1 52337U 22045G   23089.44235993  .00005152  00000-0  34160-3 0  9994,2 52337  53.2180 356.0959 0000998 105.0137 255.0966 15.08833728 53311,6917.9,95.438,540.455,539.074,0.0
52337.0,STARLINK-3797,PAYLOAD,2023-03-31 02:30:51,15.08855263,0.0001392,53.2173,353.1221,95.2068,264.9083,0.0013223,0.00020828,0.0,0 STARLINK-3797,1 52337U 22045G   23090.10476215  .00020828  00000-0  13223-2 0  9996,2 52337  53.2173 353.1221 0001392  95.2068 264.9083 15.08855263 53413,6917.834,95.437,540.662,538.736,0.0
52337.0,STARLINK-3797,PAYLOAD,2023-04-01 02:21:38,15.08855721,0.0001146,53.2171,348.6617,79.1905,280.9216,0.0013145,0.00020703,0.0,0 STARLINK-3797,1 52337U 22045G   23091.09836393  .00020703  00000-0  13145-2 0  9997,2 52337  53.2171 348.6617 0001146  79.1905 280.9216 15.08855721 53568,6917.832,95.437,540.49,538.905,0.0
52337.0,STARLINK-3797,PAYLOAD,2023-04-01 16:40:07,15.08831283,0.0001373,53.217,345.9862,86.4217,273.6932,0.00097427,0.00015248,0.0,0 STARLINK-3797,1 52337U 22045G   23091.69453434  .00015248  00000-0  97427-3 0  9998,2 52337  53.2170 345.9862 0001373  86.4217 273.6932 15.08831283 53659,6917.907,95.438,540.722,538.822,0.0
52337.0,STARLINK-3797,PAYLOAD,2023-04-01 23:01:40,15.08834769,0.0001314,53.2175,344.7952,85.55,274.5642,0.00066816,0.0001036,0.0,0 STARLINK-3797,1 52337U 22045G   23091.95949627  .00010360  00000-0  66816-3 0  9999,2 52337  53.2175 344.7952 0001314  85.5500 274.5642 15.08834769 53695,6917.896,95.438,540.67,538.852,0.0
52337.0,STARLINK-3797,PAYLOAD,2023-04-02 21:17:04,15.08860345,0.0001347,53.2176,340.6327,84.1986,275.916,0.00097706,0.00015305,0.0,0 STARLINK-3797,1 52337U 22045G   23092.88685272  .00015305  00000-0  97706-3 0  9991,2 52337  53.2176 340.6327 0001347  84.1986 275.9160 15.08860345 53831,6917.818,95.436,540.615,538.751,0.0
52337.0,STARLINK-3797,PAYLOAD,2023-04-03 02:03:13,15.08871983,0.0001466,53.2176,339.7408,70.1943,289.9207,0.0011539,0.0001814,0.0,0 STARLINK-3797,1 52337U 22045G   23093.08556904  .00018140  00000-0  11539-2 0  9992,2 52337  53.2176 339.7408 0001466  70.1943 289.9207 15.08871983 53860,6917.783,95.436,540.662,538.633,0.0
52337.0,STARLINK-3797,PAYLOAD,2023-04-03 21:07:50,15.08859327,0.0001214,53.2169,336.1729,84.9721,275.1409,0.00054305,8.37e-05,0.0,0 STARLINK-3797,1 52337U 22045G   23093.88044658  .00008370  00000-0  54305-3 0  9991,2 52337  53.2169 336.1729 0001214  84.9721 275.1409 15.08859327 53989,6917.821,95.436,540.526,538.846,0.0
52337.0,STARLINK-3797,PAYLOAD,2023-04-04 01:53:59,15.0886165,0.0001218,53.217,335.2806,74.6264,285.4863,0.00076764,0.00011957,0.0,0 STARLINK-3797,1 52337U 22045G   23094.07916571  .00011957  00000-0  76764-3 0  9993,2 52337  53.2170 335.2806 0001218  74.6264 285.4863 15.08861650 54014,6917.814,95.436,540.522,538.837,0.0
52337.0,STARLINK-3797,PAYLOAD,2023-04-04 20:58:38,15.08838493,0.0001758,53.2178,331.712,68.2103,291.9076,0.0008772,0.000137,0.0,0 STARLINK-3797,1 52337U 22045G   23094.87405208  .00013700  00000-0  87720-3 0  9993,2 52337  53.2178 331.7120 0001758  68.2103 291.9076 15.08838493 54132,6917.885,95.438,540.966,538.534,0.0
52337.0,STARLINK-3797,PAYLOAD,2023-04-05 08:06:19,15.08832945,0.0001215,53.2168,329.6308,84.1133,275.9998,0.0002562,3.791e-05,0.0,0 STARLINK-3797,1 52337U 22045G   23095.33773099  .00003791  00000-0  25620-3 0  9991,2 52337  53.2168 329.6308 0001215  84.1133 275.9998 15.08832945 54202,6917.902,95.438,540.607,538.926,0.0
52337.0,STARLINK-3797,PAYLOAD,2023-04-05 20:49:24,15.0883796,0.0001053,53.2165,327.2521,100.6482,259.4629,0.00023648,3.478e-05,0.0,0 STARLINK-3797,1 52337U 22045G   23095.86765033  .00003478  00000-0  23648-3 0  9998,2 52337  53.2165 327.2521 0001053 100.6482 259.4629 15.08837960 54289,6917.887,95.438,540.48,539.023,0.0
52337.0,STARLINK-3797,PAYLOAD,2023-04-06 01:35:34,15.08845272,0.0001044,53.2165,326.3606,95.7878,264.3234,0.00053449,8.23e-05,0.0,0 STARLINK-3797,1 52337U 22045G   23096.06636963  .00008230  00000-0  53449-3 0  9993,2 52337  53.2165 326.3606 0001044  95.7878 264.3234 15.08845272 54312,6917.864,95.437,540.451,539.007,0.0
52337.0,STARLINK-3797,PAYLOAD,2023-04-06 22:15:35,15.08843683,9.39e-05,53.2153,322.4943,88.2766,271.8334,0.00042343,6.458e-05,0.0,0 STARLINK-3797,1 52337U 22045G   23096.92749348  .00006458  00000-0  42343-3 0  9991,2 52337  53.2153 322.4943 0000939  88.2766 271.8334 15.08843683 54447,6917.869,95.437,540.384,539.085,0.0
52337.0,STARLINK-3797,PAYLOAD,2023-04-06 23:50:58,15.08842838,8.94e-05,53.2149,322.197,88.0899,272.0196,0.00042612,6.501e-05,0.0,0 STARLINK-3797,1 52337U 22045G   23096.99373374  .00006501  00000-0  42612-3 0  9998,2 52337  53.2149 322.1970 0000894  88.0899 272.0196 15.08842838 54455,6917.872,95.437,540.355,539.118,0.0
52337.0,STARLINK-3797,PAYLOAD,2023-04-07 23:41:45,15.08846743,0.0001036,53.2163,317.738,81.2908,278.8201,0.00027324,4.064e-05,0.0,0 STARLINK-3797,1 52337U 22045G   23097.98733292  .00004064  00000-0  27324-3 0  9992,2 52337  53.2163 317.7380 0001036  81.2908 278.8201 15.08846743 54608,6917.86,95.437,540.441,539.008,0.0
52337.0,STARLINK-3797,PAYLOAD,2023-04-08 20:21:46,15.08839406,8.83e-05,53.2159,313.8708,76.3466,283.7625,0.0001004,1.31e-05,0.0,0 STARLINK-3797,1 52337U 22045G   23098.84845612  .00001310  00000-0  10040-3 0  9996,2 52337  53.2159 313.8708 0000883  76.3466 283.7625 15.08839406 54734,6917.882,95.438,540.358,539.136,0.0
52337.0,STARLINK-3797,PAYLOAD,2023-04-09 13:51:01,15.08835403,0.0001005,53.216,310.6,84.6301,275.4806,0.0004117,6.27e-05,0.0,0 STARLINK-3797,1 52337U 22045G   23099.57710051  .00006270  00000-0  41170-3 0  9993,2 52337  53.2160 310.6000 0001005  84.6301 275.4806 15.08835403 54847,6917.894,95.438,540.455,539.064,0.0
52337.0,STARLINK-3797,PAYLOAD,2023-04-09 20:12:33,15.08842577,9.95e-05,53.2162,309.4104,79.6626,280.4478,0.00023718,3.489e-05,0.0,0 STARLINK-3797,1 52337U 22045G   23099.84205831  .00003489  00000-0  23718-3 0  9995,2 52337  53.2162 309.4104 0000995  79.6626 280.4478 15.08842577 54886,6917.873,95.437,540.426,539.049,0.0
52337.0,STARLINK-3797,PAYLOAD,2023-04-10 00:58:43,15.08840688,0.0001034,53.2162,308.5172,89.9307,270.1803,0.00075436,0.00011738,0.0,0 STARLINK-3797,1 52337U 22045G   23100.04078143  .00011738  00000-0  75436-3 0  9994,2 52337  53.2162 308.5172 0001034  89.9307 270.1803 15.08840688 54919,6917.878,95.438,540.459,539.028,0.0
52337.0,STARLINK-3797,PAYLOAD,2023-04-10 13:41:48,15.08846419,0.0001315,53.2157,306.1387,77.5839,282.5301,0.00027035,4.018e-05,0.0,0 STARLINK-3797,1 52337U 22045G   23100.57069786  .00004018  00000-0  27035-3 0  9990,2 52337  53.2157 306.1387 0001315  77.5839 282.5301 15.08846419 54996,6917.861,95.437,540.635,538.816,0.0
52337.0,STARLINK-3797,PAYLOAD,2023-04-10 20:03:20,15.08849907,0.0001073,53.2157,304.9482,98.617,261.4944,0.00026786,3.979e-05,0.0,0 STARLINK-3797,1 52337U 22045G   23100.83565373  .00003979  00000-0  26786-3 0  9999,2 52337  53.2157 304.9482 0001073  98.6170 261.4944 15.08849907 55031,6917.85,95.437,540.457,538.973,0.0
52337.0,STARLINK-3797,PAYLOAD,2023-04-11 00:49:29,15.0885461,0.0001131,53.2145,304.0555,93.0733,267.0388,0.00035487,5.367e-05,0.0,0 STARLINK-3797,1 52337U 22045G   23101.03437186  .00005367  00000-0  35487-3 0  9993,2 52337  53.2145 304.0555 0001131  93.0733 267.0388 15.08854610 55063,6917.836,95.437,540.483,538.918,0.0
